[{"OBJECT_NAME":"STARLINK-6319","OBJECT_ID":"2023-065AF","EPOCH":"2026-03-09T22:00:01.999584","MEAN_MOTION":15.13025016,"ECCENTRICITY":0.0001086,"INCLINATION":43.0011,"RA_OF_ASC_NODE":196.1131,"ARG_OF_PERICENTER":291.6779,"MEAN_ANOMALY":250.1201,"EPHEMERIS_TYPE":0,"CLASSIFICATION_TYPE":"U","NORAD_CAT_ID":56532,"ELEMENT_SET_NO":999,"REV_AT_EPOCH":573,"BSTAR":0.0045139528,"MEAN_MOTION_DOT":0.00081874,"MEAN_MOTION_DDOT":0},{"OBJECT_NAME":"COSMOS 2251 DEB","OBJECT_ID":"1993-036ACF","EPOCH":"2026-03-09T11:56:10.819680","MEAN_MOTION":15.13547033,"ECCENTRICITY":0.00020959,"INCLINATION":74.0129,"RA_OF_ASC_NODE":232.1639,"ARG_OF_PERICENTER":259.3269,"MEAN_ANOMALY":157.2039,"EPHEMERIS_TYPE":0,"CLASSIFICATION_TYPE":"U","NORAD_CAT_ID":34861,"ELEMENT_SET_NO":999,"REV_AT_EPOCH":89400,"BSTAR":0.0023959173,"MEAN_MOTION_DOT":0.00043182,"MEAN_MOTION_DDOT":0}]
